[{"OBJECT_NAME":"OBJECT C","OBJECT_ID":"2023-091C","EPOCH":"2026-03-09T22:19:51.473568","MEAN_MOTION":15.24718365,"ECCENTRICITY":0.0013257,"INCLINATION":97.5143,"RA_OF_ASC_NODE":130.8747,"ARG_OF_PERICENTER":96.9232,"MEAN_ANOMALY":263.3514,"EPHEMERIS_TYPE":0,"CLASSIFICATION_TYPE":"U","NORAD_CAT_ID":57168,"ELEMENT_SET_NO":999,"REV_AT_EPOCH":14912,"BSTAR":0.00051490472,"MEAN_MOTION_DOT":0.00012709,"MEAN_MOTION_DDOT":0},{"OBJECT_NAME":"STARLINK-30895","OBJECT_ID":"2023-180S","EPOCH":"2026-03-09T03:29:16.348704","MEAN_MOTION":15.27575728,"ECCENTRICITY":0.0001198,"INCLINATION":43.0029,"RA_OF_ASC_NODE":55.542,"ARG_OF_PERICENTER":279.4238,"MEAN_ANOMALY":80.6478,"EPHEMERIS_TYPE":0,"CLASSIFICATION_TYPE":"U","NORAD_CAT_ID":58418,"ELEMENT_SET_NO":999,"REV_AT_EPOCH":12743,"BSTAR":1.2293914e-5,"MEAN_MOTION_DOT":7.6e-7,"MEAN_MOTION_DDOT":0}]
